NORAD_CAT_ID,OBJECT_NAME,OBJECT_TYPE,EPOCH,MEAN_MOTION,ECCENTRICITY,INCLINATION,RA_OF_ASC_NODE,ARG_OF_PERICENTER,MEAN_ANOMALY,BSTAR,MEAN_MOTION_DOT,MEAN_MOTION_DDOT,TLE_LINE0,TLE_LINE1,TLE_LINE2,SEMIMAJOR_AXIS,PERIOD,APOGEE,PERIGEE,DECAYED
54170.0,STARLINK-5155,PAYLOAD,2024-03-14 06:33:25,15.0884335,0.0001445,53.2186,20.6879,104.0745,256.0408,0.00011377,1.523e-05,0.0,0 STARLINK-5155,1 54170U 22141P   24074.27320831  .00001523  00000-0  11377-3 0  9993,2 54170  53.2186  20.6879 0001445 104.0745 256.0408 15.08843350 76343,6917.87,95.437,540.735,538.736,0.0
54170.0,STARLINK-5155,PAYLOAD,2024-03-15 04:48:49,15.0884268,0.00012,53.2189,16.5245,88.1479,271.965,3.0599e-05,1.99e-06,0.0,0 STARLINK-5155,1 54170U 22141P   24075.20057172  .00000199  00000-0  30599-4 0  9998,2 54170  53.2189  16.5245 0001200  88.1479 271.9650 15.08842680 76476,6917.872,95.437,540.567,538.907,0.0
54170.0,STARLINK-5155,PAYLOAD,2024-03-16 04:39:36,15.08846592,0.0001323,53.2197,12.0679,105.4646,254.6492,9.2999e-05,1.193e-05,0.0,0 STARLINK-5155,1 54170U 22141P   24076.19417063  .00001193  00000-0  92999-4 0  9993,2 54170  53.2197  12.0679 0001323 105.4646 254.6492 15.08846592 76638,6917.86,95.437,540.64,538.81,0.0
54170.0,STARLINK-5155,PAYLOAD,2024-03-17 04:30:23,15.08843686,0.0001361,53.2192,7.6043,90.2014,269.9134,0.00010627,1.404e-05,0.0,0 STARLINK-5155,1 54170U 22141P   24077.18777443  .00001404  00000-0  10627-3 0  9996,2 54170  53.2192   7.6043 0001361  90.2014 269.9134 15.08843686 76778,6917.869,95.437,540.676,538.793,0.0
54170.0,STARLINK-5155,PAYLOAD,2024-03-18 02:45:47,15.08850056,0.0001613,53.2209,3.4367,76.5573,283.5598,0.00012629,1.723e-05,0.0,0 STARLINK-5155,1 54170U 22141P   24078.11512990  .00001723  00000-0  12629-3 0  9992,2 54170  53.2209   3.4367 0001613  76.5573 283.5598 15.08850056 76929,6917.85,95.437,540.831,538.599,0.0
54170.0,STARLINK-5155,PAYLOAD,2024-03-18 18:39:38,15.08844608,0.0001364,53.2192,0.4738,96.4395,263.6752,4.3127e-05,3.99e-06,0.0,0 STARLINK-5155,1 54170U 22141P   24078.77753404  .00000399  00000-0  43127-4 0  9997,2 54170  53.2192   0.4738 0001364  96.4395 263.6752 15.08844608 77013,6917.866,95.437,540.675,538.788,0.0
54170.0,STARLINK-5155,PAYLOAD,2024-03-19 04:11:56,15.08855814,0.0001361,53.2187,358.6875,101.929,258.1855,0.00014671,2.049e-05,0.0,0 STARLINK-5155,1 54170U 22141P   24079.17496318  .00002049  00000-0  14671-3 0  9995,2 54170  53.2187 358.6875 0001361 101.9290 258.1855 15.08855814 77070,6917.832,95.437,540.639,538.756,0.0
54170.0,STARLINK-5155,PAYLOAD,2024-03-19 21:41:11,15.08854151,0.0001653,53.2191,355.4151,115.7528,244.3635,0.00010053,1.313e-05,0.0,0 STARLINK-5155,1 54170U 22141P   24079.90360191  .00001313  00000-0  10053-3 0  9998,2 54170  53.2191 355.4151 0001653 115.7528 244.3635 15.08854151 77186,6917.837,95.437,540.846,538.559,0.0
54170.0,STARLINK-5155,PAYLOAD,2024-03-20 04:02:43,15.08861069,0.0001515,53.2191,354.2205,99.8788,260.2375,0.00018235,2.617e-05,0.0,0 STARLINK-5155,1 54170U 22141P   24080.16855544  .00002617  00000-0  18235-3 0  9997,2 54170  53.2191 354.2205 0001515  99.8788 260.2375 15.08861069 77230,6917.816,95.436,540.729,538.633,0.0
54170.0,STARLINK-5155,PAYLOAD,2024-03-20 21:31:59,15.08831585,0.0001508,53.2198,350.9553,105.5184,254.5975,-0.00018927,-3.298e-05,0.0,0 STARLINK-5155,1 54170U 22141P   24080.89721308 -.00003298  00000-0 -18927-3 0  9993,2 54170  53.2198 350.9553 0001508 105.5184 254.5975 15.08831585 77347,6917.906,95.438,540.814,538.728,0.0
54170.0,STARLINK-5155,PAYLOAD,2024-03-21 00:42:45,15.088326,0.0001311,53.2182,350.3601,91.5662,268.5481,-0.00014635,-2.616e-05,0.0,0 STARLINK-5155,1 54170U 22141P   24081.02969327 -.00002616  00000-0 -14635-3 0  9999,2 54170  53.2182 350.3601 0001311  91.5662 268.5481 15.08832600 77352,6917.903,95.438,540.675,538.861,0.0
54170.0,STARLINK-5155,PAYLOAD,2024-03-21 18:11:59,15.08840793,0.0001317,53.2182,347.0892,90.5061,269.6082,-5.9656e-05,-1.237e-05,0.0,0 STARLINK-5155,1 54170U 22141P   24081.75833230 -.00001237  00000-0 -59656-4 0  9993,2 54170  53.2182 347.0892 0001317  90.5061 269.6082 15.08840793 77468,6917.878,95.438,540.654,538.832,0.0
54170.0,STARLINK-5155,PAYLOAD,2024-03-21 21:22:45,15.08854558,0.0001406,53.218,346.4934,106.7085,253.4062,0.00013922,1.929e-05,0.0,0 STARLINK-5155,1 54170U 22141P   24081.89080264  .00001929  00000-0  13922-3 0  9990,2 54170  53.2180 346.4934 0001406 106.7085 253.4062 15.08854558 77497,6917.836,95.437,540.674,538.728,0.0
54170.0,STARLINK-5155,PAYLOAD,2024-03-22 00:33:31,15.0885807,0.0001483,53.2183,345.8986,108.5489,251.5664,0.00020622,2.997e-05,0.0,0 STARLINK-5155,1 54170U 22141P   24082.02328041  .00002997  00000-0  20622-3 0  9995,2 54170  53.2183 345.8986 0001483 108.5489 251.5664 15.08858070 77505,6917.825,95.436,540.716,538.664,0.0
54170.0,STARLINK-5155,PAYLOAD,2024-03-22 22:48:56,15.08841516,0.00013,53.218,341.739,101.8339,258.2799,0.00018586,2.671e-05,0.0,0 STARLINK-5155,1 54170U 22141P   24082.95065151  .00002671  00000-0  18586-3 0  9992,2 54170  53.2180 341.7390 0001300 101.8339 258.2799 15.08841516 77650,6917.876,95.437,540.64,538.841,0.0
54170.0,STARLINK-5155,PAYLOAD,2024-03-23 21:04:20,15.08836979,0.0001437,53.2178,337.5754,114.3138,245.8005,-0.00013421,-2.423e-05,0.0,0 STARLINK-5155,1 54170U 22141P   24083.87801531 -.00002423  00000-0 -13421-3 0  9994,2 54170  53.2178 337.5754 0001437 114.3138 245.8005 15.08836979 77784,6917.89,95.438,540.749,538.761,0.0
54170.0,STARLINK-5155,PAYLOAD,2024-03-23 22:39:43,15.08836885,0.00015,53.218,337.2795,117.0405,243.074,-0.00012494,-2.276e-05,0.0,0 STARLINK-5155,1 54170U 22141P   24083.94425545 -.00002276  00000-0 -12494-3 0  9994,2 54170  53.2180 337.2795 0001500 117.0405 243.0740 15.08836885 77802,6917.89,95.438,540.793,538.717,0.0
54170.0,STARLINK-5155,PAYLOAD,2024-03-24 09:47:25,15.08837236,0.0001256,53.2178,335.193,84.9096,275.2039,-0.00011782,-2.162e-05,0.0,0 STARLINK-5155,1 54170U 22141P   24084.40793610 -.00002162  00000-0 -11782-3 0  9990,2 54170  53.2178 335.1930 0001256  84.9096 275.2039 15.08837236 77879,6917.889,95.438,540.623,538.885,0.0
54170.0,STARLINK-5155,PAYLOAD,2024-03-24 20:55:08,15.0882729,0.0001373,53.2181,333.1102,91.6802,268.4347,0.00028539,4.255e-05,0.0,0 STARLINK-5155,1 54170U 22141P   24084.87162839  .00004255  00000-0  28539-3 0  9995,2 54170  53.2181 333.1102 0001373  91.6802 268.4347 15.08827290 77934,6917.919,95.438,540.734,538.834,0.0
54170.0,STARLINK-5155,PAYLOAD,2024-03-24 22:30:31,15.08840526,0.0001586,53.2172,332.814,90.7513,269.3661,0.0001011,1.321e-05,0.0,0 STARLINK-5155,1 54170U 22141P   24084.93786068  .00001321  00000-0  10110-3 0  9995,2 54170  53.2172 332.8140 0001586  90.7513 269.3661 15.08840526 77955,6917.879,95.438,540.841,538.647,0.0
54170.0,STARLINK-5155,PAYLOAD,2024-03-25 01:41:16,15.08856185,0.0001416,53.218,332.2194,104.6942,255.4208,0.00047461,7.277e-05,0.0,0 STARLINK-5155,1 54170U 22141P   24085.07033388  .00007277  00000-0  47461-3 0  9996,2 54170  53.2180 332.2194 0001416 104.6942 255.4208 15.08856185 77962,6917.831,95.437,540.675,538.716,0.0
54170.0,STARLINK-5155,PAYLOAD,2024-03-25 09:38:14,15.08824703,0.0001542,53.2181,330.7327,78.1432,281.9733,-2.5085e-06,-3.28e-06,0.0,0 STARLINK-5155,1 54170U 22141P   24085.40155130 -.00000328  00000-0 -25085-5 0  9995,2 54170  53.2181 330.7327 0001542  78.1432 281.9733 15.08824703 78018,6917.927,95.439,540.859,538.725,0.0
54170.0,STARLINK-5155,PAYLOAD,2024-03-25 22:21:19,15.08820926,0.000121,53.2174,328.3538,72.3932,287.7192,-0.00010243,-1.917e-05,0.0,0 STARLINK-5155,1 54170U 22141P   24085.93147766 -.00001917  00000-0 -10243-3 0  9992,2 54170  53.2174 328.3538 0001210  72.3932 287.7192 15.08820926 78106,6917.939,95.439,540.641,538.967,0.0
54170.0,STARLINK-5155,PAYLOAD,2024-03-26 09:29:01,15.08837779,0.0001375,53.2182,326.2739,82.155,277.9599,0.00012284,1.668e-05,0.0,0 STARLINK-5155,1 54170U 22141P   24086.39515442  .00001668  00000-0  12284-3 0  9991,2 54170  53.2182 326.2739 0001375  82.1550 277.9599 15.08837779 78164,6917.887,95.438,540.703,538.801,0.0
54170.0,STARLINK-5155,PAYLOAD,2024-03-26 22:12:06,15.0884384,0.0001144,53.2169,323.8945,80.3107,279.8014,0.00033499,5.048e-05,0.0,0 STARLINK-5155,1 54170U 22141P   24086.92507251  .00005048  00000-0  33499-3 0  9996,2 54170  53.2169 323.8945 0001144  80.3107 279.8014 15.08843840 78252,6917.869,95.437,540.525,538.942,0.0
54170.0,STARLINK-5155,PAYLOAD,2024-03-27 09:19:47,15.08851926,0.000126,53.2164,321.8134,83.2816,276.832,0.00021954,3.209e-05,0.0,0 STARLINK-5155,1 54170U 22141P   24087.38874742  .00003209  00000-0  21954-3 0  9999,2 54170  53.2164 321.8134 0001260  83.2816 276.8320 15.08851926 78311,6917.844,95.437,540.581,538.837,0.0
54170.0,STARLINK-5155,PAYLOAD,2024-03-27 20:27:29,15.08841351,0.0001474,53.2186,319.7318,85.1037,275.0123,0.00027773,4.135e-05,0.0,0 STARLINK-5155,1 54170U 22141P   24087.85242803  .00004135  00000-0  27773-3 0  9992,2 54170  53.2186 319.7318 0001474  85.1037 275.0123 15.08841351 78388,6917.876,95.437,540.761,538.722,0.0
54170.0,STARLINK-5155,PAYLOAD,2024-03-27 22:02:52,15.08842899,0.0001662,53.2192,319.4357,76.0924,284.0253,0.00026532,3.937e-05,0.0,0 STARLINK-5155,1 54170U 22141P   24087.91866872  .00003937  00000-0  26532-3 0  9998,2 54170  53.2192 319.4357 0001662  76.0924 284.0253 15.08842899 78403,6917.872,95.437,540.886,538.587,0.0
54170.0,STARLINK-5155,PAYLOAD,2024-03-28 21:53:40,15.08845113,0.0001502,53.2175,314.9732,80.5266,279.5896,1.3159e-05,-7.9e-07,0.0,0 STARLINK-5155,1 54170U 22141P   24088.91226924 -.00000079  00000-0  13159-4 0  9994,2 54170  53.2175 314.9732 0001502  80.5266 279.5896 15.08845113 78553,6917.865,95.437,540.769,538.691,0.0
54170.0,STARLINK-5155,PAYLOAD,2024-03-29 01:04:26,15.08845309,0.0001533,53.2177,314.3789,81.2339,278.8826,7.9783e-06,-1.61e-06,0.0,0 STARLINK-5155,1 54170U 22141P   24089.04474831 -.00000161  00000-0  79783-5 0  9999,2 54170  53.2177 314.3789 0001533  81.2339 278.8826 15.08845309 78567,6917.864,95.437,540.79,538.669,0.0
